start=new Date('2022-07-18T00:00:00.000Z').valueOf();
sats=[{"FILE":"3516387","RCS_SIZE":"LARGE","TIME_SYSTEM":"UTC","REV_AT_EPOCH":"130","TLE_LINE2":"2 52533  53.2184 343.1936 0002165  37.7266 172.2387 15.08848345  1307","PERIOD":"95.437","CENTER_NAME":"EARTH","INCLINATION":"53.2184","SITE":"AFWTR","MEAN_ELEMENT_THEORY":"SGP4","EPOCH":"2022-07-17T22:00:00.999936","REF_FRAME":"TEME","EPHEMERIS_TYPE":"0","CLASSIFICATION_TYPE":"U","PERIAPSIS":"538.222","SEMIMAJOR_AXIS":"6917.855","ARG_OF_PERICENTER":"37.7266","MEAN_MOTION_DOT":"-0.00058296","MEAN_MOTION_DDOT":"0.0000000000000","DECAY_DATE":null,"MEAN_ANOMALY":"172.2387","OBJECT_NAME":"STARLINK-3951","APOAPSIS":"541.218","NORAD_CAT_ID":"52533","OBJECT_ID":"2022-051A","LAUNCH_DATE":"2022-05-13","ECCENTRICITY":"0.00021650","BSTAR":"-0.00367360000000","GP_ID":"208341977","RA_OF_ASC_NODE":"343.1936","TLE_LINE1":"1 52533U 22051A   22198.91667824 -.00058296  00000-0 -36736-2 0  9992","MEAN_MOTION":"15.08848345","ELEMENT_SET_NO":"999","COUNTRY_CODE":"US","OBJECT_TYPE":"PAYLOAD"},{"MEAN_ANOMALY":"131.9581","OBJECT_NAME":"STARLINK-3952","MEAN_MOTION_DOT":"0.00005723","MEAN_MOTION_DDOT":"0.0000000000000","DECAY_DATE":null,"SEMIMAJOR_AXIS":"6917.964","ARG_OF_PERICENTER":"43.1845","PERIOD":"95.439","CENTER_NAME":"EARTH","SITE":"AFWTR","INCLINATION":"53.2184","REV_AT_EPOCH":"130","TLE_LINE2":"2 52534  53.2184 343.1942 0001849  43.1845 131.9581 15.08812499  1306","FILE":"3516387","RCS_SIZE":"LARGE","TIME_SYSTEM":"UTC","PERIAPSIS":"538.550","CLASSIFICATION_TYPE":"U","EPOCH":"2022-07-17T22:00:00.999936","EPHEMERIS_TYPE":"0","REF_FRAME":"TEME","MEAN_ELEMENT_THEORY":"SGP4","ELEMENT_SET_NO":"999","TLE_LINE1":"1 52534U 22051B   22198.91667824  .00005723  00000-0  37763-3 0  9990","MEAN_MOTION":"15.08812499","OBJECT_TYPE":"PAYLOAD","COUNTRY_CODE":"US","ECCENTRICITY":"0.00018490","OBJECT_ID":"2022-051B","LAUNCH_DATE":"2022-05-13","NORAD_CAT_ID":"52534","APOAPSIS":"541.109","RA_OF_ASC_NODE":"343.1942","GP_ID":"208341194","BSTAR":"0.00037763000000"},{"RA_OF_ASC_NODE":"343.1939","GP_ID":"208341788","BSTAR":"-0.00225840000000","ECCENTRICITY":"0.00018490","OBJECT_ID":"2022-051C","LAUNCH_DATE":"2022-05-13","NORAD_CAT_ID":"52535","APOAPSIS":"541.048","OBJECT_TYPE":"PAYLOAD","COUNTRY_CODE":"US","ELEMENT_SET_NO":"999","TLE_LINE1":"1 52535U 22051C   22198.91667824 -.00036044  00000-0 -22584-2 0  9997","MEAN_MOTION":"15.08832272","PERIAPSIS":"538.490","CLASSIFICATION_TYPE":"U","EPOCH":"2022-07-17T22:00:00.999936","REF_FRAME":"TEME","EPHEMERIS_TYPE":"0","MEAN_ELEMENT_THEORY":"SGP4","CENTER_NAME":"EARTH","PERIOD":"95.438","SITE":"AFWTR","INCLINATION":"53.2185","REV_AT_EPOCH":"130","TLE_LINE2":"2 52535  53.2185 343.1939 0001849  40.7103 154.4287 15.08832272  1308","FILE":"3516387","RCS_SIZE":"LARGE","TIME_SYSTEM":"UTC","MEAN_ANOMALY":"154.4287","OBJECT_NAME":"STARLINK-3958","MEAN_MOTION_DDOT":"0.0000000000000","MEAN_MOTION_DOT":"-0.00036044","DECAY_DATE":null,"SEMIMAJOR_AXIS":"6917.904","ARG_OF_PERICENTER":"40.7103"},{"OBJECT_TYPE":"PAYLOAD","COUNTRY_CODE":"US","ELEMENT_SET_NO":"999","TLE_LINE1":"1 52536U 22051D   22198.91667824 -.00067303  00000-0 -42479-2 0  9995","MEAN_MOTION":"15.08861370","RA_OF_ASC_NODE":"343.1940","GP_ID":"208341307","BSTAR":"-0.00424790000000","ECCENTRICITY":"0.00019780","OBJECT_ID":"2022-051D","LAUNCH_DATE":"2022-05-13","NORAD_CAT_ID":"52536","APOAPSIS":"541.048","MEAN_ANOMALY":"166.8783","OBJECT_NAME":"STARLINK-3964","MEAN_MOTION_DOT":"-0.00067303","MEAN_MOTION_DDOT":"0.0000000000000","DECAY_DATE":null,"SEMIMAJOR_AXIS":"6917.815","ARG_OF_PERICENTER":"48.2520","PERIAPSIS":"538.312","CLASSIFICATION_TYPE":"U","EPOCH":"2022-07-17T22:00:00.999936","EPHEMERIS_TYPE":"0","REF_FRAME":"TEME","MEAN_ELEMENT_THEORY":"SGP4","CENTER_NAME":"EARTH","PERIOD":"95.436","SITE":"AFWTR","INCLINATION":"53.2177","REV_AT_EPOCH":"130","TLE_LINE2":"2 52536  53.2177 343.1940 0001978  48.2520 166.8783 15.08861370  1300","FILE":"3516387","RCS_SIZE":"LARGE","TIME_SYSTEM":"UTC"},{"COUNTRY_CODE":"US","OBJECT_TYPE":"PAYLOAD","TLE_LINE1":"1 52537U 22051E   22198.91667824 -.00075625  00000-0 -47812-2 0  9998","MEAN_MOTION":"15.08859422","ELEMENT_SET_NO":"999","BSTAR":"-0.00478120000000","GP_ID":"208341893","RA_OF_ASC_NODE":"343.1938","APOAPSIS":"541.142","NORAD_CAT_ID":"52537","OBJECT_ID":"2022-051E","LAUNCH_DATE":"2022-05-13","ECCENTRICITY":"0.00021040","SEMIMAJOR_AXIS":"6917.821","ARG_OF_PERICENTER":"40.3169","MEAN_MOTION_DOT":"-0.00075625","MEAN_MOTION_DDOT":"0.0000000000000","DECAY_DATE":null,"MEAN_ANOMALY":"194.8261","OBJECT_NAME":"STARLINK-3897","MEAN_ELEMENT_THEORY":"SGP4","EPOCH":"2022-07-17T22:00:00.999936","EPHEMERIS_TYPE":"0","REF_FRAME":"TEME","CLASSIFICATION_TYPE":"U","PERIAPSIS":"538.231","FILE":"3516387","RCS_SIZE":"LARGE","TIME_SYSTEM":"UTC","REV_AT_EPOCH":"130","TLE_LINE2":"2 52537  53.2179 343.1938 0002104  40.3169 194.8261 15.08859422  1301","PERIOD":"95.436","CENTER_NAME":"EARTH","INCLINATION":"53.2179","SITE":"AFWTR"},{"ECCENTRICITY":"0.00018390","LAUNCH_DATE":"2022-05-13","OBJECT_ID":"2022-051F","NORAD_CAT_ID":"52538","APOAPSIS":"543.494","RA_OF_ASC_NODE":"343.1016","GP_ID":"208341563","BSTAR":"-0.00209930000000","ELEMENT_SET_NO":"999","MEAN_MOTION":"15.08030358","TLE_LINE1":"1 52538U 22051F   22198.91667824 -.00032817  00000-0 -20993-2 0  9996","OBJECT_TYPE":"PAYLOAD","COUNTRY_CODE":"US","INCLINATION":"53.2175","SITE":"AFWTR","PERIOD":"95.489","CENTER_NAME":"EARTH","TLE_LINE2":"2 52538  53.2175 343.1016 0001839  56.1708 266.6095 15.08030358  1305","REV_AT_EPOCH":"130","RCS_SIZE":"LARGE","TIME_SYSTEM":"UTC","FILE":"3516387","PERIAPSIS":"540.949","CLASSIFICATION_TYPE":"U","EPHEMERIS_TYPE":"0","REF_FRAME":"TEME","EPOCH":"2022-07-17T22:00:00.999936","MEAN_ELEMENT_THEORY":"SGP4","OBJECT_NAME":"STARLINK-3933","MEAN_ANOMALY":"266.6095","DECAY_DATE":null,"MEAN_MOTION_DDOT":"0.0000000000000","MEAN_MOTION_DOT":"-0.00032817","ARG_OF_PERICENTER":"56.1708","SEMIMAJOR_AXIS":"6920.356"},{"LAUNCH_DATE":"2022-05-13","OBJECT_ID":"2022-051G","ECCENTRICITY":"0.00020510","APOAPSIS":"541.132","NORAD_CAT_ID":"52539","RA_OF_ASC_NODE":"343.1939","GP_ID":"208341421","BSTAR":"-0.00411810000000","MEAN_MOTION":"15.08850471","TLE_LINE1":"1 52539U 22051G   22198.91667824 -.00065255  00000-0 -41181-2 0  9991","ELEMENT_SET_NO":"999","OBJECT_TYPE":"PAYLOAD","COUNTRY_CODE":"US","TLE_LINE2":"2 52539  53.2181 343.1939 0002051  43.5573 211.6114 15.08850471  1302","REV_AT_EPOCH":"130","INCLINATION":"53.2181","SITE":"AFWTR","PERIOD":"95.437","CENTER_NAME":"EARTH","RCS_SIZE":"LARGE","TIME_SYSTEM":"UTC","FILE":"3516387","REF_FRAME":"TEME","EPHEMERIS_TYPE":"0","EPOCH":"2022-07-17T22:00:00.999936","PERIAPSIS":"538.295","CLASSIFICATION_TYPE":"U","MEAN_ELEMENT_THEORY":"SGP4","DECAY_DATE":null,"MEAN_MOTION_DDOT":"0.0000000000000","MEAN_MOTION_DOT":"-0.00065255","OBJECT_NAME":"STARLINK-3757","MEAN_ANOMALY":"211.6114","ARG_OF_PERICENTER":"43.5573","SEMIMAJOR_AXIS":"6917.848"},{"EPOCH":"2022-07-17T22:00:00.999936","EPHEMERIS_TYPE":"0","REF_FRAME":"TEME","CLASSIFICATION_TYPE":"U","PERIAPSIS":"538.463","MEAN_ELEMENT_THEORY":"SGP4","REV_AT_EPOCH":"130","TLE_LINE2":"2 52540  53.2173 343.1921 0001850  46.6723 288.4375 15.08840729  1309","CENTER_NAME":"EARTH","PERIOD":"95.438","SITE":"AFWTR","INCLINATION":"53.2173","FILE":"3516387","RCS_SIZE":"LARGE","TIME_SYSTEM":"UTC","MEAN_MOTION_DOT":"-0.00011527","MEAN_MOTION_DDOT":"0.0000000000000","DECAY_DATE":null,"MEAN_ANOMALY":"288.4375","OBJECT_NAME":"STARLINK-3940","SEMIMAJOR_AXIS":"6917.878","ARG_OF_PERICENTER":"46.6723","RA_OF_ASC_NODE":"343.1921","GP_ID":"208341675","BSTAR":"-0.00070726000000","OBJECT_ID":"2022-051H","LAUNCH_DATE":"2022-05-13","ECCENTRICITY":"0.00018500","APOAPSIS":"541.023","NORAD_CAT_ID":"52540","OBJECT_TYPE":"PAYLOAD","COUNTRY_CODE":"US","TLE_LINE1":"1 52540U 22051H   22198.91667824 -.00011527  00000-0 -70726-3 0  9994","MEAN_MOTION":"15.08840729","ELEMENT_SET_NO":"999"},{"FILE":"3516387","TIME_SYSTEM":"UTC","RCS_SIZE":"LARGE","CENTER_NAME":"EARTH","PERIOD":"95.438","SITE":"AFWTR","INCLINATION":"53.2155","REV_AT_EPOCH":"130","TLE_LINE2":"2 52541  53.2155 348.2043 0002005  38.9316 108.7207 15.08840662  1300","MEAN_ELEMENT_THEORY":"SGP4","PERIAPSIS":"538.356","CLASSIFICATION_TYPE":"U","EPOCH":"2022-07-17T22:00:00.999936","REF_FRAME":"TEME","EPHEMERIS_TYPE":"0","SEMIMAJOR_AXIS":"6917.878","ARG_OF_PERICENTER":"38.9316","MEAN_ANOMALY":"108.7207","OBJECT_NAME":"STARLINK-3845","MEAN_MOTION_DOT":"-0.00046005","MEAN_MOTION_DDOT":"0.0000000000000","DECAY_DATE":null,"NORAD_CAT_ID":"52541","APOAPSIS":"541.130","ECCENTRICITY":"0.00020050","OBJECT_ID":"2022-051J","LAUNCH_DATE":"2022-05-13","BSTAR":"-0.00289090000000","GP_ID":"208341978","RA_OF_ASC_NODE":"348.2043","ELEMENT_SET_NO":"999","TLE_LINE1":"1 52541U 22051J   22198.91667824 -.00046005  00000-0 -28909-2 0  9999","MEAN_MOTION":"15.08840662","COUNTRY_CODE":"US","OBJECT_TYPE":"PAYLOAD"},{"OBJECT_TYPE":"PAYLOAD","COUNTRY_CODE":"US","TLE_LINE1":"1 52542U 22051K   22198.91667824 -.00066361  00000-0 -41879-2 0  9998","MEAN_MOTION":"15.08859692","ELEMENT_SET_NO":"999","RA_OF_ASC_NODE":"343.1833","BSTAR":"-0.00418790000000","GP_ID":"208341195","OBJECT_ID":"2022-051K","LAUNCH_DATE":"2022-05-13","ECCENTRICITY":"0.00016050","APOAPSIS":"540.796","NORAD_CAT_ID":"52542","MEAN_MOTION_DOT":"-0.00066361","MEAN_MOTION_DDOT":"0.0000000000000","DECAY_DATE":null,"MEAN_ANOMALY":"306.5280","OBJECT_NAME":"STARLINK-3937","SEMIMAJOR_AXIS":"6917.820","ARG_OF_PERICENTER":"48.6007","EPOCH":"2022-07-17T22:00:00.999936","REF_FRAME":"TEME","EPHEMERIS_TYPE":"0","PERIAPSIS":"538.575","CLASSIFICATION_TYPE":"U","MEAN_ELEMENT_THEORY":"SGP4","REV_AT_EPOCH":"130","TLE_LINE2":"2 52542  53.2169 343.1833 0001605  48.6007 306.5280 15.08859692  1309","PERIOD":"95.436","CENTER_NAME":"EARTH","SITE":"AFWTR","INCLINATION":"53.2169","FILE":"3516387","TIME_SYSTEM":"UTC","RCS_SIZE":"LARGE"}];
